# FY3D (LEO)
1 43010U 17072A   25241.30198369  .00000124  00000+0  80455-4 0  9990
2 43010  98.9703 206.1280 0002000 130.2102 229.9248 14.19635913403573

# FY3E (LEO)
1 49008U 21062A   25241.32366219  .00000031  00000+0  35298-4 0  9992
2 49008  98.7462 243.0815 0001422 164.4283 195.6937 14.19859164215162

# FY3F (LEO)
1 57490U 23111A   25241.31097391  .00000088  00000+0  61889-4 0  9991
2 57490  98.7215 311.2375 0001014 116.0366 244.0914 14.19854618107447

# FY3G (LEO)
1 56232U 23055A   25241.28028417  .00038949  00000+0  61241-3 0  9998
2 56232  49.9951  51.2926 0016733  30.8779 329.3169 15.53030131134638

# C2E1 (LEO)
1 44349U 19036L   25241.24931813  .00004638  00000+0  36383-3 0  9994
2 44349  23.9969 202.3969 0001219 140.6701 219.3888 14.97373797340853

# C2E2 (LEO)
1 44351U 19036N   25241.29336092  .00004613  00000+0  36166-3 0  9992
2 44351  23.9994 318.5024 0001408 128.8070 231.2556 14.97380471339796

# C2E3 (LEO)
1 44343U 19036E   25240.77196270  .00007438  00000+0  47095-3 0  9998
2 44343  23.9997  26.3055 0001360  58.0278 302.0357 15.06297077339043

# C2E4 (LEO)
1 44350U 19036M   25241.20373517  .00004323  00000+0  33747-3 0  9995
2 44350  23.9983 264.7813 0001455 131.4204 228.6422 14.97366163340260

# C2E5 (LEO)
1 44358U 19036V   25240.95463811  .00005127  00000+0  40113-3 0  9999
2 44358  23.9981  80.6166 0001438  23.5626 336.4941 14.97723999338504

# C2E6 (LEO)
1 44353U 19036Q   25241.09334558  .00005126  00000+0  40493-3 0  9995
2 44353  23.9967 140.6748 0001375 156.9471 203.1092 14.97364927337996

# G01 (GNSS)
1 62339U 24242A   25240.43794858 -.00000108  00000+0  00000+0 0  9996
2 62339  54.9554 346.0468 0007064 344.3614 200.0882  2.00559951  5382

# G02 (GNSS)
1 28474U 04045A   25240.13463208 -.00000104  00000+0  00000+0 0  9992
2 28474  55.2902 336.6946 0166969 305.5574  51.3301  2.00564779152543

# G03 (GNSS)
1 40294U 14068A   25240.75836842 -.00000059  00000+0  00000+0 0  9997
2 40294  56.7812  42.2420 0061981  69.3397 291.3415  2.00558518 79348

# G04 (GNSS)
1 43873U 18109A   25240.08338030 -.00000018  00000+0  00000+0 0  9990
2 43873  55.5018 103.7589 0034770 194.8293 337.5916  2.00573679 49197

# G05 (GNSS)
1 35752U 09043A   25241.20473454 -.00000062  00000+0  00000+0 0  9998
2 35752  56.0199  38.9416 0055185  81.2183 101.0850  2.00571875117506

# G06 (GNSS)
1 39741U 14026A   25240.79491246 -.00000104  00000+0  00000+0 0  9996
2 39741  56.6222 342.8976 0035385 317.5717  42.1879  2.00569009 82678

# G07 (GNSS)
1 32711U 08012A   25239.97810451  .00000009  00000+0  00000+0 0  9998
2 32711  54.4664 161.6351 0200471 244.0845 113.8565  2.00560991127875

# G08 (GNSS)
1 40730U 15033A   25240.05739861 -.00000018  00000+0  00000+0 0  9996
2 40730  54.2180 279.1607 0105102  25.2586 335.3125  2.00571256 74118

# G09 (GNSS)
1 40105U 14045A   25239.88859709 -.00000020  00000+0  00000+0 0  9990
2 40105  55.1586 100.1621 0032235 116.5556 243.8582  2.00566045 80195

# G10 (GNSS)
1 41019U 15062A   25239.61629664 -.00000066  00000+0  00000+0 0  9991
2 41019  56.7559  42.1422 0105968 227.8832 131.2286  2.00567169 71940

# G11 (GNSS)
1 48859U 21054A   25240.91314135 -.00000106  00000+0  00000+0 0  9992
2 48859  55.2932 344.2039 0022561 227.0578 184.5825  2.00559484 30894

# G12 (GNSS)
1 29601U 06052A   25240.25382646  .00000049  00000+0  00000+0 0  9991
2 29601  55.0000 225.6198 0084811  86.8980 274.0603  2.00567350137533

# G13 (GNSS)
1 24876U 97035A   25241.03356281 -.00000019  00000+0  00000+0 0  9992
2 24876  55.8392 110.0041 0094643  55.8825 305.0950  2.00562881206098

# G14 (GNSS)
1 46826U 20078A   25240.84971054  .00000053  00000+0  00000+0 0  9990
2 46826  54.0446 222.6355 0062236 203.5485 332.0755  2.00567256 35648

# G15 (GNSS)
1 32260U 07047A   25238.06559127 -.00000018  00000+0  00000+0 0  9994
2 32260  53.8747  92.2472 0164050  83.1808 278.7691  2.00569046130892

# G16 (GNSS)
1 27663U 03005A   25240.00514090  .00000046  00000+0  00000+0 0  9992
2 27663  54.9562 226.6189 0143619  50.5046 351.7211  2.00550306165435

# G17 (GNSS)
1 28874U 05038A   25240.68365009 -.00000023  00000+0  00000+0 0  9999
2 28874  55.1202 284.9701 0133633 290.9894  65.8607  2.00555382145964

# G18 (GNSS)
1 44506U 19056A   25239.51109164 -.00000107  00000+0  00000+0 0  9995
2 44506  55.7599 342.8100 0055972 194.9979 180.8224  2.00563605 44184

# G19 (GNSS)
1 28190U 04009A   25241.21704125 -.00000024  00000+0  00000+0 0  9994
2 28190  55.0744 287.4714 0107319 164.8032 194.8907  2.00564975157082

# G20 (GNSS)
1 26360U 00025A   25239.42533226 -.00000083  00000+0  00000+0 0  9992
2 26360  54.9837  31.1756 0036431 233.6295 134.7812  2.00576097185382

# G21 (GNSS)
1 64202U 25116A   25239.67360558 -.00000068  00000+0  00000+0 0  9993
2 64202  55.0273  42.9627 0001687 296.7027 246.9872  2.00566023  1983

# G22 (GNSS)
1 26407U 00040A   25240.67992267  .00000053  00000+0  00000+0 0  9990
2 26407  54.9221 226.7817 0131450 299.6035  95.7223  2.00566806184087

# G23 (GNSS)
1 45854U 20041A   25239.80526380 -.00000068  00000+0  00000+0 0  9999
2 45854  56.4728  40.3476 0056739 199.5661 333.5078  2.00564856 38153

# G24 (GNSS)
1 38833U 12053A   25239.15924174  .00000006  00000+0  00000+0 0  9994
2 38833  53.5430 155.6448 0170393  61.9140 299.8236  2.00563965 93540

# G25 (GNSS)
1 36585U 10022A   25240.03943537  .00000046  00000+0  00000+0 0  9997
2 36585  54.3261 220.3725 0121774  64.1649 117.9429  2.00573753111719

# G26 (GNSS)
1 40534U 15013A   25240.39363850  .00000046  00000+0  00000+0 0  9994
2 40534  53.2238 216.2895 0101375  35.8520 324.8022  2.00568922 75955

# G27 (GNSS)
1 39166U 13023A   25240.02025586 -.00000021  00000+0  00000+0 0  9997
2 39166  54.7387 280.9048 0133003  48.1356 313.0546  2.00565735 90003

# G28 (GNSS)
1 55268U 23009A   25232.06294610 -.00000038  00000+0  00000+0 0  9992
2 55268  55.0964 160.3489 0003753 342.0663 199.8046  2.00564478 19205

# G29 (GNSS)
1 32384U 07062A   25240.88416837 -.00000023  00000+0  00000+0 0  9997
2 32384  55.2685 285.8911 0032643 162.7312 201.0882  2.00572275129651

# G30 (GNSS)
1 39533U 14008A   25240.51663964  .00000006  00000+0  00000+0 0  9993
2 39533  53.6194 161.2566 0078498 226.3431 133.0245  2.00568193 83819

# G31 (GNSS)
1 29486U 06042A   25240.12068079  .00000010  00000+0  00000+0 0  9996
2 29486  54.6863 162.9715 0105728  48.5933 163.8223  2.00558539138519

# G32 (GNSS)
1 41328U 16007A   25240.69513778 -.00000021  00000+0  00000+0 0  9993
2 41328  55.3395 101.0660 0088274 242.5937 116.5856  2.00566361 69977

# C06 (GNSS)
1 36828U 10036A   25239.77615218 -.00000120  00000+0  00000+0 0  9997
2 36828  54.2796 165.6193 0048476 216.9045 338.9648  1.00256469 55159

# C04 (GNSS)
1 37210U 10057A   25241.27328817 -.00000109  00000+0  00000+0 0  9997
2 37210   2.9170  70.2829 0007093 167.0938 358.7993  1.00272737 54366

# C07 (GNSS)
1 37256U 10068A   25237.55086240 -.00000179  00000+0  00000+0 0  9993
2 37256  48.0796 275.4934 0048600 216.0065 148.5250  1.00267349 53837

# C14 (GNSS)
1 38775U 12050B   25240.19012950 -.00000036  00000+0  00000+0 0  9996
2 38775  56.2834  72.6003 0011613 357.4494   2.6022  1.86231174 87859

# C01 (GNSS)
1 44231U 19027A   25241.27016816 -.00000244  00000+0  00000+0 0  9997
2 44231   1.3898  74.2699 0006492 271.5763 233.5675  1.00276945 23150

# C24 (GNSS)
1 43582U 18062B   25240.32974263  .00000037  00000+0  00000+0 0  9996
2 43582  54.0972 192.2504 0005511  14.1328 345.8574  1.86229906 48185

# C26 (GNSS)
1 43602U 18067A   25240.26635498  .00000036  00000+0  00000+0 0  9990
2 43602  54.1909 190.9739 0007895  27.9649 332.0530  1.86227747 47662

# C25 (GNSS)
1 43603U 18067B   25240.40059294  .00000036  00000+0  00000+0 0  9991
2 43603  54.1881 190.9336 0004586  13.9011 346.0877  1.86227268 47697

# C32 (GNSS)
1 43622U 18072A   25239.82148613 -.00000037  00000+0  00000+0 0  9998
2 43622  56.3636  72.3584 0004438 325.1772  34.8516  1.86231399 47193

# C33 (GNSS)
1 43623U 18072B   25239.15000719 -.00000037  00000+0  00000+0 0  9999
2 43623  56.3650  72.3745 0003966  15.9247 344.1472  1.86231397 47179

# C35 (GNSS)
1 43647U 18078A   25240.38305571 -.00000080  00000+0  00000+0 0  9990
2 43647  54.3543 310.2398 0005855  25.3225 334.7717  1.86232430 46706

# C34 (GNSS)
1 43648U 18078B   25239.97530061 -.00000081  00000+0  00000+0 0  9999
2 43648  54.3504 310.2552 0002524  38.2712 321.8126  1.86232487 46714

# C59 (GNSS)
1 43683U 18085A   25241.26930149 -.00000276  00000+0  00000+0 0  9998
2 43683   2.8414 105.8905 0003970   5.4800 103.3086  1.00269273 25131

# C36 (GNSS)
1 43706U 18093A   25240.92804203  .00000038  00000+0  00000+0 0  9991
2 43706  54.1809 192.2116 0009502 292.1095 241.5900  1.86228467 46099

# C37 (GNSS)
1 43707U 18093B   25240.53056248  .00000038  00000+0  00000+0 0  9997
2 43707  54.1816 192.2169 0007882 321.3518  38.5675  1.86230116 46086

# C38 (GNSS)
1 44204U 19023A   25240.86804757 -.00000198  00000+0  00000+0 0  9994
2 44204  58.2851  40.6680 0024932 215.4911 152.7758  1.00276472  4280

# C39 (GNSS)
1 44337U 19035A   25240.69344347 -.00000135  00000+0  00000+0 0  9990
2 44337  55.2153 161.4352 0034988 209.1932 332.4356  1.00248570 22731

# C46 (GNSS)
1 44542U 19061A   25240.06490851  .00000037  00000+0  00000+0 0  9990
2 44542  54.4088 192.6139 0008626 358.4906   1.4802  1.86229444 40333

# C45 (GNSS)
1 44543U 19061B   25240.93501214  .00000039  00000+0  00000+0 0  9995
2 44543  54.4071 192.5530 0005783 342.4283 153.6892  1.86229679 40353

# C40 (GNSS)
1 44709U 19073A   25239.52465809 -.00000165  00000+0  00000+0 0  9995
2 44709  55.3032 284.0720 0045714 191.1058 168.8854  1.00276787 21510

# C44 (GNSS)
1 44793U 19078A   25237.75864949 -.00000082  00000+0  00000+0 0  9992
2 44793  54.2031 310.2100 0004605  34.3354 325.7622  1.86232297 39142

# C43 (GNSS)
1 44794U 19078B   25241.11555571 -.00000077  00000+0  00000+0 0  9990
2 44794  54.1728 310.0596 0002632  20.7384 339.3373  1.86227906 39215
